[{"OBJECT_NAME":"STARLINK-1559","OBJECT_ID":"2020-055BC","EPOCH":"2026-03-09T05:36:23.522976","MEAN_MOTION":15.29461733,"ECCENTRICITY":0.0004229,"INCLINATION":53.0254,"RA_OF_ASC_NODE":76.0659,"ARG_OF_PERICENTER":33.971,"MEAN_ANOMALY":326.1559,"EPHEMERIS_TYPE":0,"CLASSIFICATION_TYPE":"U","NORAD_CAT_ID":46077,"ELEMENT_SET_NO":999,"REV_AT_EPOCH":30951,"BSTAR":0.0014778793,"MEAN_MOTION_DOT":0.00042685,"MEAN_MOTION_DDOT":0},{"OBJECT_NAME":"STARLINK-33893","OBJECT_ID":"2025-119W","EPOCH":"2026-03-09T00:19:38.024256","MEAN_MOTION":15.27597675,"ECCENTRICITY":0.00012771,"INCLINATION":42.9969,"RA_OF_ASC_NODE":311.0709,"ARG_OF_PERICENTER":280.8883,"MEAN_ANOMALY":79.1825,"EPHEMERIS_TYPE":0,"CLASSIFICATION_TYPE":"U","NORAD_CAT_ID":64253,"ELEMENT_SET_NO":999,"REV_AT_EPOCH":4406,"BSTAR":0.0012598872,"MEAN_MOTION_DOT":0.00034589,"MEAN_MOTION_DDOT":0}]
